CELESTIS-02             
1 25160U 98007D   22265.31371750 -.00000019  00000+0  49250-4 0  9996
2 25160 107.9906 101.8054 0064164 303.5578 230.1342 14.21646318276847
CELESTIS-03             
1 26034U 99070C   22264.87069413  .00017110  00000+0  75849-3 0  9999
2 26034  98.3118 280.6214 0010794 150.4513 209.7332 15.21645181235729
